<?xml version="1.0" encoding="UTF-8"?>
<ndm xmlns:xsi="http://www.w3.org/2001/XMLSchema-instance" xsi:noNamespaceSchemaLocation="https://sanaregistry.org/r/ndmxml_unqualified/ndmxml-2.0.0-master-2.0.xsd">
<omm id="CCSDS_OMM_VERS" version="2.0">
<header><CREATION_DATE/><ORIGINATOR/></header><body><segment><metadata><OBJECT_NAME>ORBCOMM FM20</OBJECT_NAME><OBJECT_ID>1998-046D</OBJECT_ID><CENTER_NAME>EARTH</CENTER_NAME><REF_FRAME>TEME</REF_FRAME><TIME_SYSTEM>UTC</TIME_SYSTEM><MEAN_ELEMENT_THEORY>SGP4</MEAN_ELEMENT_THEORY></metadata><data><meanElements><EPOCH>2024-11-29T17:00:19.484640</EPOCH><MEAN_MOTION>14.36368902</MEAN_MOTION><ECCENTRICITY>.000215</ECCENTRICITY><INCLINATION>44.9950</INCLINATION><RA_OF_ASC_NODE>45.3964</RA_OF_ASC_NODE><ARG_OF_PERICENTER>262.2791</ARG_OF_PERICENTER><MEAN_ANOMALY>97.7812</MEAN_ANOMALY></meanElements><tleParameters><EPHEMERIS_TYPE>0</EPHEMERIS_TYPE><CLASSIFICATION_TYPE>U</CLASSIFICATION_TYPE><NORAD_CAT_ID>25416</NORAD_CAT_ID><ELEMENT_SET_NO>999</ELEMENT_SET_NO><REV_AT_EPOCH>37557</REV_AT_EPOCH><BSTAR>.11624E-2</BSTAR><MEAN_MOTION_DOT>.3293E-4</MEAN_MOTION_DOT><MEAN_MOTION_DDOT>0</MEAN_MOTION_DDOT></tleParameters></data></segment></body></omm>
<omm id="CCSDS_OMM_VERS" version="2.0">
<header><CREATION_DATE/><ORIGINATOR/></header><body><segment><metadata><OBJECT_NAME>ORBCOMM FM16</OBJECT_NAME><OBJECT_ID>1998-046E</OBJECT_ID><CENTER_NAME>EARTH</CENTER_NAME><REF_FRAME>TEME</REF_FRAME><TIME_SYSTEM>UTC</TIME_SYSTEM><MEAN_ELEMENT_THEORY>SGP4</MEAN_ELEMENT_THEORY></metadata><data><meanElements><EPOCH>2024-11-30T03:06:10.657728</EPOCH><MEAN_MOTION>14.37747321</MEAN_MOTION><ECCENTRICITY>.000372</ECCENTRICITY><INCLINATION>44.9948</INCLINATION><RA_OF_ASC_NODE>37.3681</RA_OF_ASC_NODE><ARG_OF_PERICENTER>338.3229</ARG_OF_PERICENTER><MEAN_ANOMALY>21.7461</MEAN_ANOMALY></meanElements><tleParameters><EPHEMERIS_TYPE>0</EPHEMERIS_TYPE><CLASSIFICATION_TYPE>U</CLASSIFICATION_TYPE><NORAD_CAT_ID>25417</NORAD_CAT_ID><ELEMENT_SET_NO>999</ELEMENT_SET_NO><REV_AT_EPOCH>37581</REV_AT_EPOCH><BSTAR>.15116E-2</BSTAR><MEAN_MOTION_DOT>.4452E-4</MEAN_MOTION_DOT><MEAN_MOTION_DDOT>0</MEAN_MOTION_DDOT></tleParameters></data></segment></body></omm>
<omm id="CCSDS_OMM_VERS" version="2.0">
<header><CREATION_DATE/><ORIGINATOR/></header><body><segment><metadata><OBJECT_NAME>ORBCOMM FM15</OBJECT_NAME><OBJECT_ID>1998-046F</OBJECT_ID><CENTER_NAME>EARTH</CENTER_NAME><REF_FRAME>TEME</REF_FRAME><TIME_SYSTEM>UTC</TIME_SYSTEM><MEAN_ELEMENT_THEORY>SGP4</MEAN_ELEMENT_THEORY></metadata><data><meanElements><EPOCH>2024-11-29T18:44:35.597184</EPOCH><MEAN_MOTION>14.37425100</MEAN_MOTION><ECCENTRICITY>.0003246</ECCENTRICITY><INCLINATION>44.9979</INCLINATION><RA_OF_ASC_NODE>43.5987</RA_OF_ASC_NODE><ARG_OF_PERICENTER>335.0596</ARG_OF_PERICENTER><MEAN_ANOMALY>25.0094</MEAN_ANOMALY></meanElements><tleParameters><EPHEMERIS_TYPE>0</EPHEMERIS_TYPE><CLASSIFICATION_TYPE>U</CLASSIFICATION_TYPE><NORAD_CAT_ID>25418</NORAD_CAT_ID><ELEMENT_SET_NO>999</ELEMENT_SET_NO><REV_AT_EPOCH>37554</REV_AT_EPOCH><BSTAR>.14315E-2</BSTAR><MEAN_MOTION_DOT>.418E-4</MEAN_MOTION_DOT><MEAN_MOTION_DDOT>0</MEAN_MOTION_DDOT></tleParameters></data></segment></body></omm>
<omm id="CCSDS_OMM_VERS" version="2.0">
<header><CREATION_DATE/><ORIGINATOR/></header><body><segment><metadata><OBJECT_NAME>ORBCOMM FM14</OBJECT_NAME><OBJECT_ID>1998-046G</OBJECT_ID><CENTER_NAME>EARTH</CENTER_NAME><REF_FRAME>TEME</REF_FRAME><TIME_SYSTEM>UTC</TIME_SYSTEM><MEAN_ELEMENT_THEORY>SGP4</MEAN_ELEMENT_THEORY></metadata><data><meanElements><EPOCH>2024-11-29T18:35:09.968352</EPOCH><MEAN_MOTION>14.37707512</MEAN_MOTION><ECCENTRICITY>.0002938</ECCENTRICITY><INCLINATION>44.9968</INCLINATION><RA_OF_ASC_NODE>42.3836</RA_OF_ASC_NODE><ARG_OF_PERICENTER>312.3486</ARG_OF_PERICENTER><MEAN_ANOMALY>47.7113</MEAN_ANOMALY></meanElements><tleParameters><EPHEMERIS_TYPE>0</EPHEMERIS_TYPE><CLASSIFICATION_TYPE>U</CLASSIFICATION_TYPE><NORAD_CAT_ID>25419</NORAD_CAT_ID><ELEMENT_SET_NO>999</ELEMENT_SET_NO><REV_AT_EPOCH>37550</REV_AT_EPOCH><BSTAR>.13217E-2</BSTAR><MEAN_MOTION_DOT>.3871E-4</MEAN_MOTION_DOT><MEAN_MOTION_DDOT>0</MEAN_MOTION_DDOT></tleParameters></data></segment></body></omm>
<omm id="CCSDS_OMM_VERS" version="2.0">
<header><CREATION_DATE/><ORIGINATOR/></header><body><segment><metadata><OBJECT_NAME>ORBCOMM FM13</OBJECT_NAME><OBJECT_ID>1998-046H</OBJECT_ID><CENTER_NAME>EARTH</CENTER_NAME><REF_FRAME>TEME</REF_FRAME><TIME_SYSTEM>UTC</TIME_SYSTEM><MEAN_ELEMENT_THEORY>SGP4</MEAN_ELEMENT_THEORY></metadata><data><meanElements><EPOCH>2024-11-29T17:31:20.331552</EPOCH><MEAN_MOTION>14.36699175</MEAN_MOTION><ECCENTRICITY>.0004692</ECCENTRICITY><INCLINATION>44.9981</INCLINATION><RA_OF_ASC_NODE>48.7944</RA_OF_ASC_NODE><ARG_OF_PERICENTER>327.1811</ARG_OF_PERICENTER><MEAN_ANOMALY>32.8744</MEAN_ANOMALY></meanElements><tleParameters><EPHEMERIS_TYPE>0</EPHEMERIS_TYPE><CLASSIFICATION_TYPE>U</CLASSIFICATION_TYPE><NORAD_CAT_ID>25420</NORAD_CAT_ID><ELEMENT_SET_NO>999</ELEMENT_SET_NO><REV_AT_EPOCH>37454</REV_AT_EPOCH><BSTAR>.13368E-2</BSTAR><MEAN_MOTION_DOT>.3836E-4</MEAN_MOTION_DOT><MEAN_MOTION_DDOT>0</MEAN_MOTION_DDOT></tleParameters></data></segment></body></omm>
<omm id="CCSDS_OMM_VERS" version="2.0">
<header><CREATION_DATE/><ORIGINATOR/></header><body><segment><metadata><OBJECT_NAME>ORBCOMM FM21</OBJECT_NAME><OBJECT_ID>1998-053A</OBJECT_ID><CENTER_NAME>EARTH</CENTER_NAME><REF_FRAME>TEME</REF_FRAME><TIME_SYSTEM>UTC</TIME_SYSTEM><MEAN_ELEMENT_THEORY>SGP4</MEAN_ELEMENT_THEORY></metadata><data><meanElements><EPOCH>2024-11-29T21:47:06.728928</EPOCH><MEAN_MOTION>14.36499081</MEAN_MOTION><ECCENTRICITY>.0001191</ECCENTRICITY><INCLINATION>45.0058</INCLINATION><RA_OF_ASC_NODE>132.6553</RA_OF_ASC_NODE><ARG_OF_PERICENTER>233.6931</ARG_OF_PERICENTER><MEAN_ANOMALY>126.3807</MEAN_ANOMALY></meanElements><tleParameters><EPHEMERIS_TYPE>0</EPHEMERIS_TYPE><CLASSIFICATION_TYPE>U</CLASSIFICATION_TYPE><NORAD_CAT_ID>25475</NORAD_CAT_ID><ELEMENT_SET_NO>999</ELEMENT_SET_NO><REV_AT_EPOCH>36858</REV_AT_EPOCH><BSTAR>.12122E-2</BSTAR><MEAN_MOTION_DOT>.345E-4</MEAN_MOTION_DOT><MEAN_MOTION_DDOT>0</MEAN_MOTION_DDOT></tleParameters></data></segment></body></omm>
<omm id="CCSDS_OMM_VERS" version="2.0">
<header><CREATION_DATE/><ORIGINATOR/></header><body><segment><metadata><OBJECT_NAME>ORBCOMM FM22</OBJECT_NAME><OBJECT_ID>1998-053B</OBJECT_ID><CENTER_NAME>EARTH</CENTER_NAME><REF_FRAME>TEME</REF_FRAME><TIME_SYSTEM>UTC</TIME_SYSTEM><MEAN_ELEMENT_THEORY>SGP4</MEAN_ELEMENT_THEORY></metadata><data><meanElements><EPOCH>2024-11-29T20:45:38.488320</EPOCH><MEAN_MOTION>14.37288847</MEAN_MOTION><ECCENTRICITY>.000269</ECCENTRICITY><INCLINATION>45.0053</INCLINATION><RA_OF_ASC_NODE>129.1442</RA_OF_ASC_NODE><ARG_OF_PERICENTER>268.1127</ARG_OF_PERICENTER><MEAN_ANOMALY>91.9413</MEAN_ANOMALY></meanElements><tleParameters><EPHEMERIS_TYPE>0</EPHEMERIS_TYPE><CLASSIFICATION_TYPE>U</CLASSIFICATION_TYPE><NORAD_CAT_ID>25476</NORAD_CAT_ID><ELEMENT_SET_NO>999</ELEMENT_SET_NO><REV_AT_EPOCH>36858</REV_AT_EPOCH><BSTAR>.13858E-2</BSTAR><MEAN_MOTION_DOT>.403E-4</MEAN_MOTION_DOT><MEAN_MOTION_DDOT>0</MEAN_MOTION_DDOT></tleParameters></data></segment></body></omm>
<omm id="CCSDS_OMM_VERS" version="2.0">
<header><CREATION_DATE/><ORIGINATOR/></header><body><segment><metadata><OBJECT_NAME>ORBCOMM FM23</OBJECT_NAME><OBJECT_ID>1998-053C</OBJECT_ID><CENTER_NAME>EARTH</CENTER_NAME><REF_FRAME>TEME</REF_FRAME><TIME_SYSTEM>UTC</TIME_SYSTEM><MEAN_ELEMENT_THEORY>SGP4</MEAN_ELEMENT_THEORY></metadata><data><meanElements><EPOCH>2024-11-29T20:36:23.410656</EPOCH><MEAN_MOTION>14.36590923</MEAN_MOTION><ECCENTRICITY>.0001926</ECCENTRICITY><INCLINATION>45.0057</INCLINATION><RA_OF_ASC_NODE>135.2290</RA_OF_ASC_NODE><ARG_OF_PERICENTER>258.9944</ARG_OF_PERICENTER><MEAN_ANOMALY>101.0687</MEAN_ANOMALY></meanElements><tleParameters><EPHEMERIS_TYPE>0</EPHEMERIS_TYPE><CLASSIFICATION_TYPE>U</CLASSIFICATION_TYPE><NORAD_CAT_ID>25477</NORAD_CAT_ID><ELEMENT_SET_NO>999</ELEMENT_SET_NO><REV_AT_EPOCH>36872</REV_AT_EPOCH><BSTAR>.13118E-2</BSTAR><MEAN_MOTION_DOT>.3752E-4</MEAN_MOTION_DOT><MEAN_MOTION_DDOT>0</MEAN_MOTION_DDOT></tleParameters></data></segment></body></omm>

</ndm>
