ORBCOMM FM20            
1 25416U 98046D   24334.70855885  .00003293  00000+0  11624-2 0  9999
2 25416  44.9950  45.3964 0002150 262.2791  97.7812 14.36368902375572
ORBCOMM FM16            
1 25417U 98046E   24335.12929002  .00004452  00000+0  15116-2 0  9998
2 25417  44.9948  37.3681 0003720 338.3229  21.7461 14.37747321375813
ORBCOMM FM15            
1 25418U 98046F   24334.78096756  .00004180  00000+0  14315-2 0  9999
2 25418  44.9979  43.5987 0003246 335.0596  25.0094 14.37425100375547
ORBCOMM FM14            
1 25419U 98046G   24334.77442093  .00003871  00000+0  13217-2 0  9994
2 25419  44.9968  42.3836 0002938 312.3486  47.7113 14.37707512375508
ORBCOMM FM13            
1 25420U 98046H   24334.73009643  .00003836  00000+0  13368-2 0  9990
2 25420  44.9981  48.7944 0004692 327.1811  32.8744 14.36699175374542
ORBCOMM FM21            
1 25475U 98053A   24334.90771677  .00003450  00000+0  12122-2 0  9999
2 25475  45.0058 132.6553 0001191 233.6931 126.3807 14.36499081368583
ORBCOMM FM22            
1 25476U 98053B   24334.86502880  .00004030  00000+0  13858-2 0  9995
2 25476  45.0053 129.1442 0002690 268.1127  91.9413 14.37288847368589
ORBCOMM FM23            
1 25477U 98053C   24334.85860429  .00003752  00000+0  13118-2 0  9990
2 25477  45.0057 135.2290 0001926 258.9944 101.0687 14.36590923368720
